{
  "type": "FeatureCollection",
  "features": [
    {
      "type": "Feature",
      "properties": {
        "norad_id": 35052,
        "name": "IRIDIUM 33 DEB",
        "group": "iridium-33-debris",
        "lat": 81.66845439885934,
        "lon": 174.67147154843053,
        "alt_km": 746.5550940721978,
        "timestamp": "2025-12-12T07:43:20.900568+00:00",
        "meta_object_name": "IRIDIUM 33 DEB",
        "meta_object_id": "1997-051NY",
        "meta_epoch": "2025-12-11T12:54:27.641952",
        "meta_mean_motion": 14.38490165,
        "meta_eccentricity": 0.00136793,
        "meta_inclination": 86.3312,
        "meta_ra_of_asc_node": 20.9917,
        "meta_arg_of_pericenter": 88.4217,
        "meta_mean_anomaly": 271.8548,
        "meta_ephemeris_type": 0,
        "meta_classification_type": "U",
        "meta_norad_cat_id": 35052,
        "meta_element_set_no": 999,
        "meta_rev_at_epoch": 87258,
        "meta_bstar": 0.00027419057,
        "meta_mean_motion_dot": 8.58e-06,
        "meta_mean_motion_ddot": 0,
        "tle_line1": "1 35052U 97051NY  25345.53781993  .00000858  00000+0  27419-3 0  9997",
        "tle_line2": "2 35052  86.3312  20.9917 0013679  88.4217 271.8548 14.38490165872580"
      },
      "geometry": {
        "type": "Point",
        "coordinates": [
          174.67147154843053,
          81.66845439885934
        ]
      }
    },
    {
      "type": "Feature",
      "properties": {
        "norad_id": 35080,
        "name": "IRIDIUM 33 DEB",
        "group": "iridium-33-debris",
        "lat": -21.134680419974018,
        "lon": -125.9545366341425,
        "alt_km": 576.0642578160096,
        "timestamp": "2025-12-12T07:43:20.900579+00:00",
        "meta_object_name": "IRIDIUM 33 DEB",
        "meta_object_id": "1997-051PF",
        "meta_epoch": "2025-12-11T14:39:31.999392",
        "meta_mean_motion": 14.85859571,
        "meta_eccentricity": 0.00606666,
        "meta_inclination": 86.2068,
        "meta_ra_of_asc_node": 52.9156,
        "meta_arg_of_pericenter": 183.679,
        "meta_mean_anomaly": 176.3998,
        "meta_ephemeris_type": 0,
        "meta_classification_type": "U",
        "meta_norad_cat_id": 35080,
        "meta_element_set_no": 999,
        "meta_rev_at_epoch": 69671,
        "meta_bstar": 0.0092622629,
        "meta_mean_motion_dot": 0.00084254,
        "meta_mean_motion_ddot": 0,
        "tle_line1": "1 35080U 97051PF  25345.61078703  .00084254  00000+0  92623-2 0  9995",
        "tle_line2": "2 35080  86.2068  52.9156 0060666 183.6790 176.3998 14.85859571696719"
      },
      "geometry": {
        "type": "Point",
        "coordinates": [
          -125.9545366341425,
          -21.134680419974018
        ]
      }
    },
    {
      "type": "Feature",
      "properties": {
        "norad_id": 35297,
        "name": "IRIDIUM 33 DEB",
        "group": "iridium-33-debris",
        "lat": -5.781093419452008,
        "lon": 62.57269897950743,
        "alt_km": 755.3289818238918,
        "timestamp": "2025-12-12T07:43:20.900590+00:00",
        "meta_object_name": "IRIDIUM 33 DEB",
        "meta_object_id": "1997-051PM",
        "meta_epoch": "2025-12-06T00:31:29.302752",
        "meta_mean_motion": 14.45108459,
        "meta_eccentricity": 0.00170329,
        "meta_inclination": 86.3867,
        "meta_ra_of_asc_node": 65.6268,
        "meta_arg_of_pericenter": 161.2449,
        "meta_mean_anomaly": 198.9384,
        "meta_ephemeris_type": 0,
        "meta_classification_type": "U",
        "meta_norad_cat_id": 35297,
        "meta_element_set_no": 999,
        "meta_rev_at_epoch": 70329,
        "meta_bstar": 0.0012426888,
        "meta_mean_motion_dot": 4.371e-05,
        "meta_mean_motion_ddot": 0,
        "tle_line1": "1 35297U 97051PM  25340.02186693  .00004371  00000+0  12427-2 0  9999",
        "tle_line2": "2 35297  86.3867  65.6268 0017032 161.2449 198.9384 14.45108459703293"
      },
      "geometry": {
        "type": "Point",
        "coordinates": [
          62.57269897950743,
          -5.781093419452008
        ]
      }
    },
    {
      "type": "Feature",
      "properties": {
        "norad_id": 35299,
        "name": "IRIDIUM 33 DEB",
        "group": "iridium-33-debris",
        "lat": -66.2567940051214,
        "lon": 24.881872691071777,
        "alt_km": 804.4187848442907,
        "timestamp": "2025-12-12T07:43:20.900600+00:00",
        "meta_object_name": "IRIDIUM 33 DEB",
        "meta_object_id": "1997-051PP",
        "meta_epoch": "2025-12-11T14:23:51.968256",
        "meta_mean_motion": 14.40851716,
        "meta_eccentricity": 0.00589419,
        "meta_inclination": 86.2884,
        "meta_ra_of_asc_node": 33.6823,
        "meta_arg_of_pericenter": 106.0138,
        "meta_mean_anomaly": 45.6441,
        "meta_ephemeris_type": 0,
        "meta_classification_type": "U",
        "meta_norad_cat_id": 35299,
        "meta_element_set_no": 999,
        "meta_rev_at_epoch": 86314,
        "meta_bstar": 0.0011895321,
        "meta_mean_motion_dot": 3.91e-05,
        "meta_mean_motion_ddot": 0,
        "tle_line1": "1 35299U 97051PP  25345.59990704  .00003910  00000+0  11895-2 0  9990",
        "tle_line2": "2 35299  86.2884  33.6823 0058941 106.0138  45.6441 14.40851716863140"
      },
      "geometry": {
        "type": "Point",
        "coordinates": [
          24.881872691071777,
          -66.2567940051214
        ]
      }
    },
    {
      "type": "Feature",
      "properties": {
        "norad_id": 35480,
        "name": "IRIDIUM 33 DEB",
        "group": "iridium-33-debris",
        "lat": 20.079014184020807,
        "lon": 26.428267134910588,
        "alt_km": 725.5106197262048,
        "timestamp": "2025-12-12T07:43:20.900611+00:00",
        "meta_object_name": "IRIDIUM 33 DEB",
        "meta_object_id": "1997-051QA",
        "meta_epoch": "2025-12-09T19:59:43.135296",
        "meta_mean_motion": 14.49744632,
        "meta_eccentricity": 0.00159269,
        "meta_inclination": 86.357,
        "meta_ra_of_asc_node": 26.1722,
        "meta_arg_of_pericenter": 113.2937,
        "meta_mean_anomaly": 246.9945,
        "meta_ephemeris_type": 0,
        "meta_classification_type": "U",
        "meta_norad_cat_id": 35480,
        "meta_element_set_no": 999,
        "meta_rev_at_epoch": 86989,
        "meta_bstar": 0.0009193458,
        "meta_mean_motion_dot": 3.565e-05,
        "meta_mean_motion_ddot": 0,
        "tle_line1": "1 35480U 97051QA  25343.83313814  .00003565  00000+0  91935-3 0  9998",
        "tle_line2": "2 35480  86.3570  26.1722 0015926 113.2937 246.9945 14.49744632869893"
      },
      "geometry": {
        "type": "Point",
        "coordinates": [
          26.428267134910588,
          20.079014184020807
        ]
      }
    },
    {
      "type": "Feature",
      "properties": {
        "norad_id": 35484,
        "name": "IRIDIUM 33 DEB",
        "group": "iridium-33-debris",
        "lat": 67.7733222445083,
        "lon": 163.97886746126187,
        "alt_km": 548.7955740673733,
        "timestamp": "2025-12-12T07:43:20.900621+00:00",
        "meta_object_name": "IRIDIUM 33 DEB",
        "meta_object_id": "1997-051QE",
        "meta_epoch": "2025-12-11T07:11:11.450112",
        "meta_mean_motion": 14.98503136,
        "meta_eccentricity": 0.00234835,
        "meta_inclination": 86.3602,
        "meta_ra_of_asc_node": 353.4188,
        "meta_arg_of_pericenter": 129.6902,
        "meta_mean_anomaly": 230.6406,
        "meta_ephemeris_type": 0,
        "meta_classification_type": "U",
        "meta_norad_cat_id": 35484,
        "meta_element_set_no": 999,
        "meta_rev_at_epoch": 61994,
        "meta_bstar": 0.0054521834,
        "meta_mean_motion_dot": 0.00066108,
        "meta_mean_motion_ddot": 0,
        "tle_line1": "1 35484U 97051QE  25345.29943808  .00066108  00000+0  54522-2 0  9998",
        "tle_line2": "2 35484  86.3602 353.4188 0023483 129.6902 230.6406 14.98503136619942"
      },
      "geometry": {
        "type": "Point",
        "coordinates": [
          163.97886746126187,
          67.7733222445083
        ]
      }
    },
    {
      "type": "Feature",
      "properties": {
        "norad_id": 35488,
        "name": "IRIDIUM 33 DEB",
        "group": "iridium-33-debris",
        "lat": -64.32969849534436,
        "lon": 128.7567911224646,
        "alt_km": 646.7665692283663,
        "timestamp": "2025-12-12T07:43:20.900632+00:00",
        "meta_object_name": "IRIDIUM 33 DEB",
        "meta_object_id": "1997-051QJ",
        "meta_epoch": "2025-12-10T07:39:38.233728",
        "meta_mean_motion": 14.82954928,
        "meta_eccentricity": 0.00301497,
        "meta_inclination": 86.3246,
        "meta_ra_of_asc_node": 301.994,
        "meta_arg_of_pericenter": 50.6144,
        "meta_mean_anomaly": 309.7742,
        "meta_ephemeris_type": 0,
        "meta_classification_type": "U",
        "meta_norad_cat_id": 35488,
        "meta_element_set_no": 999,
        "meta_rev_at_epoch": 88230,
        "meta_bstar": 0.0023681949,
        "meta_mean_motion_dot": 0.0001943,
        "meta_mean_motion_ddot": 0,
        "tle_line1": "1 35488U 97051QJ  25344.31919252  .00019430  00000+0  23682-2 0  9999",
        "tle_line2": "2 35488  86.3246 301.9940 0030149  50.6144 309.7742 14.82954928882307"
      },
      "geometry": {
        "type": "Point",
        "coordinates": [
          128.7567911224646,
          -64.32969849534436
        ]
      }
    }
  ]
}